STARLINK-31524          
1 59506U 24071Y   26068.42845185 -.00001710  00000+0 -52637-4 0  9995
2 59506  43.0057 334.2763 0001266 272.5503  87.5204 15.27565301108249
FLOCK 4G-2              
1 62661U 25009BE  26068.66207492  .00013752  00000+0  51068-3 0  9995
2 62661  97.4044 151.2221 0003181 329.2677  30.8376 15.27675260121321
